{
    "links": {
        "self": "http://www.neowsapp.com/rest/v1/neo/3645185?api_key=iIulBulltgU6a56xZRHN4H3l9WmuAYTsLGpBGhQ2"
    },
    "id": "3645185",
    "neo_reference_id": "3645185",
    "name": "(2013 OT3)",
    "designation": "2013 OT3",
    "nasa_jpl_url": "http://ssd.jpl.nasa.gov/sbdb.cgi?sstr=3645185",
    "absolute_magnitude_h": 23.6,
    "estimated_diameter": {
        "kilometers": {
            "estimated_diameter_min": 0.0506471459,
            "estimated_diameter_max": 0.1132504611
        },
        "meters": {
            "estimated_diameter_min": 50.6471458835,
            "estimated_diameter_max": 113.2504610618
        },
        "miles": {
            "estimated_diameter_min": 0.0314706677,
            "estimated_diameter_max": 0.0703705522
        },
        "feet": {
            "estimated_diameter_min": 166.1651821003,
            "estimated_diameter_max": 371.5566426699
        }
    },
    "is_potentially_hazardous_asteroid": false,
    "close_approach_data": [
        {
            "close_approach_date": "2013-07-20",
            "close_approach_date_full": "2013-Jul-20 22:19",
            "epoch_date_close_approach": 1374358740000,
            "relative_velocity": {
                "kilometers_per_second": "5.0360765423",
                "kilometers_per_hour": "18129.8755523496",
                "miles_per_hour": "11265.1996175141"
            },
            "miss_distance": {
                "astronomical": "0.2375806008",
                "lunar": "92.4188537112",
                "kilometers": "35541551.833000296",
                "miles": "22084496.2373282448"
            },
            "orbiting_body": "Earth"
        },
        {
            "close_approach_date": "2047-07-23",
            "close_approach_date_full": "2047-Jul-23 15:07",
            "epoch_date_close_approach": 2447507220000,
            "relative_velocity": {
                "kilometers_per_second": "5.2254115311",
                "kilometers_per_hour": "18811.4815120081",
                "miles_per_hour": "11688.7230539475"
            },
            "miss_distance": {
                "astronomical": "0.2680808057",
                "lunar": "104.2834334173",
                "kilometers": "40104317.520603859",
                "miles": "24919667.3669728942"
            },
            "orbiting_body": "Earth"
        }
    ],
    "orbital_data": {
        "orbit_id": "9",
        "orbit_determination_date": "2017-04-06 08:45:17",
        "first_observation_date": "2013-07-16",
        "last_observation_date": "2013-08-28",
        "data_arc_in_days": 43,
        "observations_used": 17,
        "orbit_uncertainty": "6",
        "minimum_orbit_intersection": ".210021",
        "jupiter_tisserand_invariant": "3.599",
        "epoch_osculation": "2459000.5",
        "eccentricity": ".4289740985252272",
        "semi_major_axis": "2.12135748658672",
        "inclination": "6.391888702202039",
        "ascending_node_longitude": "262.2429289298254",
        "orbital_period": "1128.545876964605",
        "perihelion_distance": "1.21135007112844",
        "perihelion_argument": "41.26998684591285",
        "aphelion_distance": "3.031364902045001",
        "perihelion_time": "2458751.385206745215",
        "mean_anomaly": "79.4662648654871",
        "mean_motion": ".3189945640209812",
        "equinox": "J2000",
        "orbit_class": {
            "orbit_class_type": "AMO",
            "orbit_class_description": "Near-Earth asteroid orbits similar to that of 1221 Amor",
            "orbit_class_range": "1.017 AU < q (perihelion) < 1.3 AU"
        }
    },
    "is_sentry_object": false
}